STARLINK-1642           
1 46154U 20057AP  22180.49268523  .00000330  00000+0  41057-4 0  9992
2 46154  53.0531 243.4102 0001401  63.3075 296.8057 15.06385448102852
STARLINK-1667           
1 46155U 20057AQ  22180.51756793 -.00000953  00000+0 -45113-4 0  9997
2 46155  53.0553 213.2889 0001458  62.4352 297.6785 15.06386665103933
STARLINK-1545           
1 46156U 20057AR  22180.44199607  .00000264  00000+0  36634-4 0  9996
2 46156  53.0556 233.6231 0001349  61.6077 298.5048 15.06394896104239
STARLINK-1587           
1 46157U 20057AS  22180.49544762 -.00000903  00000+0 -41701-4 0  9991
2 46157  53.0548 213.3955 0001821  50.8147 309.3004 15.06391074103273
STARLINK-1589           
1 46158U 20057AT  22180.49176124  .00001478  00000+0  11816-3 0  9994
2 46158  53.0543 213.4140 0001518  77.0159 283.1000 15.06389651103939
STARLINK-1595           
1 46159U 20057AU  22180.46596669  .00000243  00000+0  35205-4 0  9990
2 46159  53.0545 253.5263 0001417  61.9260 298.1872 15.06382978103967
STARLINK-1598           
1 46160U 20057AV  22180.45674739 -.00000357  00000+0 -50634-5 0  9998
2 46160  53.0543 233.5563 0001726  48.8520 311.2617 15.06379479104231
STARLINK-1600           
1 46161U 20057AW  22180.43462328 -.00000635  00000+0 -23756-4 0  9999
2 46161  53.0541 233.6533 0001307  83.4079 276.7058 15.06398611104230
STARLINK-1603           
1 46162U 20057AX  22180.50465813 -.00000234  00000+0  31855-5 0  9994
2 46162  53.0543 233.3573 0001391  66.7382 293.3753 15.06382606104254
STARLINK-1610           
1 46163U 20057AY  22180.37011793 -.00000789  00000+0 -34084-4 0  9996
2 46163  53.0543 213.9370 0001616  55.8304 304.2838 15.06391704103251
STARLINK-1612           
1 46164U 20057AZ  22180.49912855 -.00000727  00000+0 -29950-4 0  9997
2 46164  53.0541 213.3622 0001488  75.3868 284.7286 15.06388477104537
STARLINK-1613           
1 46165U 20057BA  22180.44865348  .00008328  00000+0  47637-3 0  9991
2 46165  53.0516 249.4535 0000881 307.4802  52.6110 15.13467284102769
STARLINK-1615           
1 46166U 20057BB  22180.55072760  .00000325  00000+0  40712-4 0  9999
2 46166  53.0546 253.1390 0001270  74.7184 285.3946 15.06393906102723
STARLINK-1626           
1 46167U 20057BC  22180.49913816 -.00001457  00000+0 -79007-4 0  9997
2 46167  53.0536 253.3718 0001567  67.2849 292.8306 15.06379728103374
STARLINK-1627           
1 46168U 20057BD  22180.34525369 -.00000919  00000+0 -42834-4 0  9994
2 46168  53.0541 204.1433 0001561  60.6602 299.4543 15.06392642103384
STARLINK-1628           
1 46169U 20057BE  22180.52302881 -.00000265  00000+0  96115-6 0  9993
2 46169  53.0000 253.2511 0001323  75.5741 284.5394 15.05566242103334
STARLINK-1633           
1 46171U 20057BG  22180.40882219 -.00000302  00000+0 -13877-5 0  9997
2 46171  53.0538 233.7713 0001527  77.8131 282.3029 15.06398197104238
STARLINK-1635           
1 46172U 20057BH  22180.42357027 -.00000716  00000+0 -29193-4 0  9990
2 46172  53.0527 233.7068 0001482  65.4030 294.7113 15.06382132104234
STARLINK-1640           
1 46173U 20057BJ  22180.46963520 -.00000021  00000+0  17515-4 0  9999
2 46173  53.0533 253.5127 0001684  52.6671 307.4471 15.06396217102709
STARLINK-1641           
1 46174U 20057BK  22180.47701506 -.00000238  00000+0  29272-5 0  9999
2 46174  53.0534 253.4774 0001630  56.9942 303.1204 15.06389437103363
SKYSAT-C17              
1 46179U 20057BQ  22180.50197274  .00018161  00000+0  21713-3 0  9992
2 46179  52.9940   0.0806 0002635  78.5891 281.5417 15.61093265105817
SKYSAT-C18              
1 46180U 20057BR  22180.73641062  .00849411  00000+0  90776-2 0  9992
2 46180  52.9943 359.0928 0008956 355.2262   4.6775 15.60991604105873
GAOFEN 9-05             
1 46232U 20058A   22180.53714009  .00003613  00000+0  15376-3 0  9991
2 46232  97.4066 234.6770 0012046  74.3579  61.8483 15.23579319102837
MULTIFUNCTION TEST SAT  
1 46233U 20058B   22180.57959351  .00006124  00000+0  22863-3 0  9996
2 46233  97.4073 236.1593 0016426  58.6166  78.6667 15.27633077102925
TIANTUO 5               
1 46234U 20058C   22180.62736206  .00002532  00000+0  10252-3 0  9993
2 46234  97.4065 235.7568 0017497  54.3417  66.8280 15.25473744102904
SKYSAT-C19              
1 46235U 20057BS  22180.52489657  .00019050  00000+0  22273-3 0  9996
2 46235  52.9905 358.5519 0002593 137.9029 222.2183 15.61640060105867
SAOCOM 1B               
1 46265U 20059A   22180.52582097 -.00001230  00000+0 -14800-3 0  9993
2 46265  97.8876   6.1216 0001470  83.3879 276.7510 14.82146286 98913
GNOMES-1                
1 46266U 20059B   22180.49534439  .00000720  00000+0  83044-4 0  9995
2 46266  97.8805  11.6000 0006626 107.4906 252.7035 14.88727551 99277
TYVAK-0172              
1 46267U 20059C   22180.48369339  .00002288  00000+0  24144-3 0  9996
2 46267  97.8681  11.1772 0007761 112.1634 248.0408 14.90264727 99303
RLFL14                  
1 46268U 20060A   22180.63953809  .00003549  00000+0  21545-3 0  9990
2 46268  45.1070  28.1673 0009401  41.0639 319.0919 15.12399568100922
CAPELLA-2-SEQUOIA       
1 46269U 20060B   22180.56278229  .00025544  00000+0  10867-2 0  9992
2 46269  45.0983  15.3802 0000707 277.4176  82.6332 15.22633241101077
NUSAT-6 (HYPATIA)       
1 46272U 20061A   22180.63793559  .00005192  00000+0  21017-3 0  9990
2 46272  97.3272 251.3434 0008007  42.0520 318.1330 15.25090793101083
ESAIL                   
1 46273U 20061B   22180.47141297  .00003004  00000+0  15069-3 0  9999
2 46273  97.3955 250.6839 0007726  90.1558 270.0561 15.18059226100657
ION-MK01                
1 46274U 20061C   22180.44444825  .00001763  00000+0  92048-4 0  9993
2 46274  97.3950 250.4110 0007759  89.6605 270.5518 15.17179395100639
ATHENA                  
1 46275U 20061D   22180.22371810  .00001631  00000+0  84581-4 0  9990
2 46275  97.3909 250.4758 0002879 105.1647 254.9905 15.17533234100643
UPMSAT-2                
1 46276U 20061E   22180.50014532  .00001955  00000+0  98669-4 0  9998
2 46276  97.3915 251.0489 0003058 112.0557 248.1002 15.18268608100707
NEMO-HD                 
1 46277U 20061F   22180.53264741  .00002176  00000+0  11160-3 0  9997
2 46277  97.3912 250.8882 0003103 110.3591   2.3079 15.17587816100695
GHGSAT-C1               
1 46278U 20061G   22175.86145123  .00004209  00000+0  20554-3 0  9996
2 46278  97.3913 246.8631 0002125 157.8854 202.2470 15.18795034100022
SIMBA                   
1 46279U 20061H   22180.45811478  .00002966  00000+0  17068-3 0  9995
2 46279  97.4475 249.9462 0003480 197.3200 162.7913 15.13203246100275
TRISAT                  
1 46280U 20061J   22180.42776373  .00002632  00000+0  15226-3 0  9992
2 46280  97.4444 249.7435 0003332 191.3897 168.7259 15.13113441100279
PICASSO-BEL             
1 46281U 20061K   22180.42860526  .00004087  00000+0  22654-3 0  9996
2 46281  97.4468 250.2522 0003569 189.0524 171.0645 15.14333241100317
FLOCK 4V-12             
1 46283U 20061M   22179.74248462  .00005052  00000+0  27916-3 0  9999
2 46283  97.4500 249.7776 0003079 192.0904 168.0254 15.14342886100207
DIDO 3                  
1 46284U 20061N   22180.43247732  .00002222  00000+0  13099-3 0  9990
2 46284  97.4456 249.7386 0003105 185.5564 174.5633 15.12581630100230
FLOCK 4V-11             
1 46285U 20061P   22180.46330297  .00005376  00000+0  29644-3 0  9999
2 46285  97.4478 250.4068 0003115 187.7987 172.3197 15.14387965100312
FLOCK 4V-14             
1 46286U 20061Q   22180.19217916  .00003723  00000+0  20622-3 0  9993
2 46286  97.4479 250.1584 0003150 181.6784 178.4438 15.14417874100274
AMICALSAT               
1 46287U 20061R   22180.45193629  .00002471  00000+0  14446-3 0  9993
2 46287  97.4463 249.9044 0001765 191.5576 168.5615 15.12793648100286
FLOCK 4V-8              
1 46288U 20061S   22180.18587552  .00002408  00000+0  13456-3 0  9996
2 46288  97.4475 250.1506 0002218 189.6814 170.4375 15.14436348100181
FLOCK 4V-6              
1 46289U 20061T   22180.50617368  .00002495  00000+0  13993-3 0  9994
2 46289  97.4482 250.5121 0001502 189.2900 170.8304 15.14273091100320
FLOCK 4V-5              
1 46290U 20061U   22180.42905934  .00003698  00000+0  21207-3 0  9999
2 46290  97.4478 250.2817 0002142 192.2791 167.8388 15.13178296100305
FLOCK 4V-7              
1 46291U 20061V   22180.41572937  .00003901  00000+0  21662-3 0  9994
2 46291  97.4478 250.4739 0002080 174.1889 185.9367 15.14304273100203
3CAT-5A                 
1 46292U 20061W   22180.50257664  .00001491  00000+0  91014-4 0  9993
2 46292  97.4454 249.7977 0003674 163.2387 196.8966 15.11794658100264
3CAT-5B                 
1 46293U 20061X   22180.45118892  .00001329  00000+0  81011-4 0  9993
2 46293  97.4450 249.8441 0003873 159.3619 200.7768 15.12021239100234
OSM-1 CICERO            
1 46294U 20061Y   22180.40896760  .00002597  00000+0  15085-3 0  9991
2 46294  97.4461 250.2507 0003678 158.7133 201.4252 15.12980002100286
TYVAK-0171              
1 46295U 20061Z   22180.44999189  .00004304  00000+0  23022-3 0  9993
2 46295  97.4515 251.1779 0004087 153.9887 206.1552 15.15580183100279
FLOCK 4V-10             
1 46296U 20061AA  22180.42874662  .00002791  00000+0  15604-3 0  9995
2 46296  97.4480 250.6476 0002129 116.5004 243.6446 15.14298884100282
FLOCK 4V-13             
1 46297U 20061AB  22180.15832098  .00003989  00000+0  22149-3 0  9995
2 46297  97.4486 250.3948 0002169 124.9126 235.2310 15.14295415100220
LEMUR-2-ETHANOAKES      
1 46298U 20061AC  22180.41901570  .00007022  00000+0  35659-3 0  9999
2 46298  97.4497 251.7620 0002796 129.0455 231.1027 15.17200642100324
LEMUR-2-OSCARLATOR      
1 46299U 20061AD  22180.48098975  .00007244  00000+0  36505-3 0  9990
2 46299  97.4504 251.8591 0002728 128.4725 231.6754 15.17461177100368
SPACEBEE-21             
1 46300U 20061AE  22180.18159922  .00008796  00000+0  41953-3 0  9996
2 46300  97.4509 252.1380 0003006 129.3657 230.7844 15.19315912100312
